#dP2021 12 29  0  0  0.00000000      97 __u+U IGS14 FIT  IAC
## 2190 259200.00000000   900.00000000 59577 0.0000000000000
+  123   C01C02C04C05C06C07C08C09C10C11C12C13C14C16C19C20C21
+        C22C23C24C25C26C27C28C29C30C32C33C34C35C36C37C38C39
+        C40C41C42C43C44C45C46C59C60E01E02E03E04E05E07E08E09
+        E11E12E13E14E15E18E19E21E24E25E26E27E30E31E33E36G01
+        G02G03G04G05G06G07G08G09G10G11G12G13G14G15G16G17G18
+        G19G20G21G22G23G24G25G26G27G28G29G30G31G32J01J02J03
+        J07R01R02R03R04R05R07R08R09R11R12R13R14R15R17R18R19
+        R20R21R22R24  0  0  0  0  0  0  0  0  0  0  0  0  0
++        13 12 13 12  9  9  9  8  9  8  9  9  9  9  7  7  7
++         6  7  7  7  7  7  7  7  7  7  7  7  7  7  7  7  7
++         7  7  7  7  7  7  7 14 13  4  4  4  4  4  4  4  4
++         4  4  4  5  4  4  4  4  4  4  4  4  4  4  4  5  3
++         3  3  3  3  3  3  3  3  3  4  3  3  3  3  3  3  3
++         3  4  3  3  3  3  3  3  3  4  3  3  4  3  8  8  8
++        13  7  5  5  5  5  6  6  6  7  5  6  5  6  5  6  7
++         7  6  7  5  0  0  0  0  0  0  0  0  0  0  0  0  0
%c M  cc GPS ccc cccc cccc cccc cccc ccccc ccccc ccccc ccccc
%c cc cc ccc ccc cccc cccc cccc cccc ccccc ccccc ccccc ccccc
%f  1.2500000  1.025000000  0.00000000000  0.000000000000000
%f  0.0000000  0.000000000  0.00000000000  0.000000000000000
%i    0    0    0    0      0      0      0      0         0
%i    0    0    0    0      0      0      0      0         0
/* INFORMATION & ANALYSIS CENTER (IAC)            FINAL DATA
/* S/V CLOCKS ARE ALIGNED TO GNSS TIME                      
/* G:C1WC2W R:C1PC2P E:C1XC5X C:C2IC6I J:C1CC2S             
/* PCV:IGS14_2186 OL/AL:FES2004  NONE     YN ORB:CoN CLK:CoN
*  2021 12 29  7 15  0.00000000
PC01 -34394.715995  24421.190881   -334.546327   -294.798375
PC02   4495.104580  41906.596011   -519.363474    762.629500
PC04 -39643.551617  14422.953338   -428.479199   -208.016483
PC05  21882.067764  36036.637138   -358.586171    348.159247
PC06 -17260.242828  29630.909697  24373.544429    712.514824
PC07  -5410.416072  40458.311489  10824.424943     65.278978
PC08   -886.956617  22860.456995 -35367.550606     16.331659
PC09 -10126.057493  28545.121252  29453.124154   -388.576301
PC10   -574.453829  42082.091923   5491.533580    138.543066
PC11  14550.720564   8759.798290 -22062.773082   -304.046632
PC12  -4198.579768  17894.728453 -20959.011963   -430.523276
PC13   3992.349658  25627.488204 -33043.062958   -163.400443
PC14  11418.742598  19116.826636  16867.065901    483.302228
PC16 -21474.610436  29283.241297  21360.591617     39.301057
PC19 -14844.077325  -9197.442054 -21744.257320    916.699934
PC20  -7074.909901 -24737.824418 -10768.801847   -798.877290
PC21  -5455.799443  26370.184360  -7337.130521   -954.422771
PC22 -14349.841739  12281.037837 -20552.473838   -962.916319
PC23  20630.411859  -3035.047161 -18540.023663   -964.596843
PC24  14038.009775  19913.568866  13562.200140   -948.345867
PC25  25300.218068  10898.402032  -4379.461365   -802.908606
PC26  -3133.965337  16548.120733  22232.731107    801.174374
PC27  13284.514401 -19149.113582  15345.522571    652.744640
PC28  24933.985498 -12477.343316  -1122.249431     14.478529
PC29 -22016.481084   -851.166615  17121.656552    494.059630
PC30  -6016.251267 -14842.162972  22852.512229    489.903038
PC32   5318.712178 -26370.646439   7426.038021   -956.845168
PC33  14912.135074   9230.150193  21709.215910   -957.351908
PC34   7012.716217  14354.355825 -22885.279597   -504.036440
PC35 -24635.194275  12955.229958   1728.583359     68.012455
PC36 -24986.683484 -11804.959266   3946.817824   -847.503794
PC37   4570.931631 -15975.067555 -22412.062820   -925.310630
PC38 -11104.645723  20564.688066 -35076.354052    200.096052
PC39 -23955.221313  30098.105713  17079.764054     34.489059
PC40 -11186.330828  37414.192139  16087.313262    230.780362
PC41  14479.202337 -11873.390208  20739.225889   -918.762669
PC42   6611.140619  25226.020227   9987.233948   -930.767099
PC43  21725.154767   1522.730595 -17464.632923   -951.431116
PC44 -12710.165319  19666.586686 -15160.588823    513.833962
PC45 -20472.591610   3119.734127  18717.317136    639.493254
PC46 -15278.961242 -19710.747393 -12569.850852    -85.776454
PC59 -32350.823881  27043.945509    313.785623     -0.097744
PC60   7284.050606  41509.273233  -1381.809893     -0.303401
PE01  20517.922935   9960.956033 -18856.948306   -548.117142
PE02 -20517.040030  -9842.929763  18942.836014    270.008700
PE03 -19243.345720   1760.262203 -22433.444933   -511.365992
PE04  19383.981195 -20140.599312   9740.155307   -931.042789
PE05  -7783.029272 -18005.023386 -22173.285913   -222.864390
PE07  -8057.864636  27023.662331   9005.855658   -622.645671
PE08 -19131.419177  20535.436924  -9424.043416   5881.044964
PE09   7822.164590 -27004.582185  -9247.771669   5413.703691
PE11   4195.624456 -16028.741374  24528.697337   4793.801333
PE12  24131.073661  -9561.617360  14247.828910   4837.166640
PE13  -4870.169667  15905.658091 -24473.063660    425.126231
PE14  -1387.604276 -17610.353720  15352.849671  -1691.234620
PE15 -24182.601483   9514.579027 -14158.922753    772.495296
PE18   4003.802968  23214.050929 -22477.180697  -1860.963699
PE19  18244.309274    844.459190  23292.940760    464.016852
PE21  16683.887585  24222.353644  -3270.986954   -708.063708
PE24  -1913.196515 -24934.640598 -15873.381438  -1305.685757
PE25 -16574.955111 -24346.083667   3040.010585   -558.461230
PE26  18129.138503  12701.702934 -19637.449384   -624.874425
PE27   2986.709482  25327.050806  15014.125694   -197.439779
PE30 -13181.173542  10363.934134  24383.856018   -148.129955
PE31  12330.279955 -11544.982120 -24301.102682   -490.012792
PE33  29164.594758   2444.022006  -4434.003355   -460.948294
PE36 -17184.105219 -12919.728636  20353.885033   -310.483612
PG01  16484.638001  13476.757398 -16368.946443    471.454244
PG02   6505.864966 -14727.063634  21805.493881   -647.138643
PG03  13020.518606  22570.749294   5319.360296    -57.950256
PG04   7704.092330  13934.798169  21247.268398   -197.266869
PG05  -3883.973922 -24442.600714   9269.196959    -66.032577
PG06  21494.174650  -6471.601666  14318.081556    155.625924
PG07  25994.372265   6061.399666   3091.502105    296.203152
PG08  -1721.009766  20894.845235 -16117.119198    -49.958958
PG09  16373.540083   2639.579530  20677.479749   -359.403598
PG10 -14889.579745   2712.914013 -21715.569199   -280.132569
PG11   9137.218763 -13220.428091  21141.514774      6.588280
PG12 -10128.954356 -24398.797536   3128.105701   -147.793651
PG13  10411.087796 -21439.819858 -11709.207078    236.810074
PG14  15406.043351  -2187.447016 -21532.135766    -62.657891
PG15  -1675.936863 -20999.158447 -16388.071938    -95.611660
PG16  -1373.035326  23369.754918  11827.145851   -447.656577
PG17  20616.682973 -10527.981140 -12615.432855    554.040450
PG18 -25975.442217  -5494.774555   1859.301002    271.007798
PG19  20606.253563 -15655.739510  -5808.447166     98.446083
PG20   3082.918918 -19806.423815  17540.852514    517.420566
PG21   7998.887128  14642.112414 -20119.638713    154.891973
PG22  10199.521345  24389.055794  -3401.374272   -430.223225
PG23 -17443.326186  -9380.990959 -17757.033883     16.790929
PG24 -12771.315907 -14601.460119 -18600.918075    276.459130
PG25 -16409.806215 -16579.381227  12684.857472    262.880908
PG26  -9625.065058  14205.500248  20126.311298    169.436454
PG27 -10919.597301  22720.667280  -7894.497042     34.319451
PG28  11666.050881 -10741.689621 -20817.029094    433.394047
PG29 -13335.026753  -7004.405096  21840.944955   -460.275409
PG30  25734.414941  -1002.509118  -6918.078468   -502.864946
PG31 -20233.445603   7786.156555  15534.163261   -157.340462
PG32 -19845.810031  14365.504049  -9902.747028    -42.129466
PJ01 -24647.542069  29789.780721 -12278.607089    318.827406
PJ02 -25503.178296  22345.221490  30044.960880     -0.549463
PJ03 -34216.342305  21930.236938  -6282.228412    -10.872980
PJ07 -25399.265162  33648.343440     -7.307465     -0.017486
PR01   9566.760898   7601.451636  22388.461952      7.337167
PR02  11628.846031 -13803.842578  18092.922007    504.799347
PR03   6417.514362 -24554.709303   2899.901313     48.971374
PR04  -2121.201244 -21379.078320 -13740.664451    121.070895
PR05  -9513.687935  -6477.151498 -22760.808194     85.010234
PR07  -6070.188260  24656.857326  -2082.017770    -38.825289
PR08   2349.694426  21288.171072  13882.275385    -62.785788
PR09 -14106.968816   1699.385498  21181.971244     31.242168
PR11  14578.593219  18541.626902   9732.305264     48.147420
PR12  20488.871990  12441.407343  -8664.297928    290.444092
PR13  14678.396669   -573.476976 -20869.991520    -16.299342
PR14   -582.155606 -14119.353404 -21225.591794     72.624767
PR15 -14770.445166 -18739.313502  -9011.029362     99.280139
PR17  12539.938285 -12801.898866  18149.407577    487.778379
PR18  -4796.936414  -9414.308614  23235.929038    102.071028
PR19 -19073.547588  -2186.925317  16804.594233   -172.427088
PR20 -24116.091583   7977.368817  -2075.682058    -62.076003
PR21 -11379.147553  12669.351655 -18995.733931   -265.887676
PR22   5868.198150   8985.189514 -23153.226815   -154.546439
PR24  23750.693761  -8850.899397   2822.586793     73.282211
EOF
